[{"OBJECT_NAME":"OPS 7218 (TRANSIT 16)","OBJECT_ID":"1967-048A","EPOCH":"2026-04-27T02:37:36.035904","MEAN_MOTION":13.5075564,"ECCENTRICITY":0.00221984,"INCLINATION":89.6761,"RA_OF_ASC_NODE":349.5937,"ARG_OF_PERICENTER":84.5926,"MEAN_ANOMALY":68.0154,"EPHEMERIS_TYPE":0,"CLASSIFICATION_TYPE":"U","NORAD_CAT_ID":2807,"ELEMENT_SET_NO":999,"REV_AT_EPOCH":90103,"BSTAR":0.00018999673,"MEAN_MOTION_DOT":1.33e-6,"MEAN_MOTION_DDOT":0},{"OBJECT_NAME":"OPS 4947 (TRANSIT 17)","OBJECT_ID":"1967-092A","EPOCH":"2026-04-27T06:12:39.663360","MEAN_MOTION":13.53489479,"ECCENTRICITY":0.00465785,"INCLINATION":89.2586,"RA_OF_ASC_NODE":14.1571,"ARG_OF_PERICENTER":200.3319,"MEAN_ANOMALY":274.3684,"EPHEMERIS_TYPE":0,"CLASSIFICATION_TYPE":"U","NORAD_CAT_ID":2965,"ELEMENT_SET_NO":999,"REV_AT_EPOCH":88930,"BSTAR":0.00012453152,"MEAN_MOTION_DOT":9.6e-7,"MEAN_MOTION_DDOT":0},{"OBJECT_NAME":"OPS 7034 (TRANSIT 18)","OBJECT_ID":"1968-012A","EPOCH":"2026-04-27T04:58:27.780672","MEAN_MOTION":13.51599905,"ECCENTRICITY":0.00753051,"INCLINATION":90.0229,"RA_OF_ASC_NODE":273.9717,"ARG_OF_PERICENTER":137.1552,"MEAN_ANOMALY":35.7717,"EPHEMERIS_TYPE":0,"CLASSIFICATION_TYPE":"U","NORAD_CAT_ID":3133,"ELEMENT_SET_NO":999,"REV_AT_EPOCH":58748,"BSTAR":0.00019750768,"MEAN_MOTION_DOT":1.41e-6,"MEAN_MOTION_DDOT":0},{"OBJECT_NAME":"NNSS 19 (TRANSIT 19)","OBJECT_ID":"1970-067A","EPOCH":"2026-04-27T06:38:03.829344","MEAN_MOTION":13.51350843,"ECCENTRICITY":0.01698988,"INCLINATION":90.0148,"RA_OF_ASC_NODE":234.6366,"ARG_OF_PERICENTER":259.9721,"MEAN_ANOMALY":98.2223,"EPHEMERIS_TYPE":0,"CLASSIFICATION_TYPE":"U","NORAD_CAT_ID":4507,"ELEMENT_SET_NO":999,"REV_AT_EPOCH":74052,"BSTAR":0.00023892097,"MEAN_MOTION_DOT":1.77e-6,"MEAN_MOTION_DDOT":0},{"OBJECT_NAME":"NNSS 20 (TRANSIT 20)","OBJECT_ID":"1973-081A","EPOCH":"2026-04-27T07:36:24.315840","MEAN_MOTION":13.71493253,"ECCENTRICITY":0.01553276,"INCLINATION":89.8586,"RA_OF_ASC_NODE":252.9918,"ARG_OF_PERICENTER":32.4151,"MEAN_ANOMALY":328.6438,"EPHEMERIS_TYPE":0,"CLASSIFICATION_TYPE":"U","NORAD_CAT_ID":6909,"ELEMENT_SET_NO":999,"REV_AT_EPOCH":82219,"BSTAR":0.00014699175,"MEAN_MOTION_DOT":1.55e-6,"MEAN_MOTION_DDOT":0},{"OBJECT_NAME":"TRANSAT","OBJECT_ID":"1977-106A","EPOCH":"2026-04-27T07:49:27.478272","MEAN_MOTION":13.48964916,"ECCENTRICITY":0.00260535,"INCLINATION":89.6459,"RA_OF_ASC_NODE":73.7269,"ARG_OF_PERICENTER":158.0283,"MEAN_ANOMALY":7.437,"EPHEMERIS_TYPE":0,"CLASSIFICATION_TYPE":"U","NORAD_CAT_ID":10457,"ELEMENT_SET_NO":999,"REV_AT_EPOCH":38571,"BSTAR":0.00011509948,"MEAN_MOTION_DOT":8.3e-7,"MEAN_MOTION_DDOT":0},{"OBJECT_NAME":"NOVA 1","OBJECT_ID":"1981-044A","EPOCH":"2026-04-27T05:17:16.230336","MEAN_MOTION":13.23293282,"ECCENTRICITY":0.00162763,"INCLINATION":89.8444,"RA_OF_ASC_NODE":89.3836,"ARG_OF_PERICENTER":90.3151,"MEAN_ANOMALY":281.262,"EPHEMERIS_TYPE":0,"CLASSIFICATION_TYPE":"U","NORAD_CAT_ID":12458,"ELEMENT_SET_NO":999,"REV_AT_EPOCH":16978,"BSTAR":0.00012765304,"MEAN_MOTION_DOT":6.3e-7,"MEAN_MOTION_DDOT":0},{"OBJECT_NAME":"NOVA 3","OBJECT_ID":"1984-110A","EPOCH":"2026-04-27T07:05:38.918976","MEAN_MOTION":13.23063951,"ECCENTRICITY":0.00302785,"INCLINATION":90.1172,"RA_OF_ASC_NODE":82.0532,"ARG_OF_PERICENTER":318.7723,"MEAN_ANOMALY":170.936,"EPHEMERIS_TYPE":0,"CLASSIFICATION_TYPE":"U","NORAD_CAT_ID":15362,"ELEMENT_SET_NO":999,"REV_AT_EPOCH":490,"BSTAR":8.9847634e-5,"MEAN_MOTION_DOT":4.6e-7,"MEAN_MOTION_DDOT":0},{"OBJECT_NAME":"OSCAR 30","OBJECT_ID":"1985-066A","EPOCH":"2026-04-27T04:56:29.579424","MEAN_MOTION":13.36103226,"ECCENTRICITY":0.01696639,"INCLINATION":90.1529,"RA_OF_ASC_NODE":101.9676,"ARG_OF_PERICENTER":61.8152,"MEAN_ANOMALY":310.7523,"EPHEMERIS_TYPE":0,"CLASSIFICATION_TYPE":"U","NORAD_CAT_ID":15935,"ELEMENT_SET_NO":999,"REV_AT_EPOCH":98262,"BSTAR":0.00017377589,"MEAN_MOTION_DOT":1.07e-6,"MEAN_MOTION_DDOT":0},{"OBJECT_NAME":"OSCAR 24","OBJECT_ID":"1985-066B","EPOCH":"2026-04-27T04:54:42.452064","MEAN_MOTION":13.35960356,"ECCENTRICITY":0.01708395,"INCLINATION":90.1692,"RA_OF_ASC_NODE":94.609,"ARG_OF_PERICENTER":68.2748,"MEAN_ANOMALY":304.2729,"EPHEMERIS_TYPE":0,"CLASSIFICATION_TYPE":"U","NORAD_CAT_ID":15936,"ELEMENT_SET_NO":999,"REV_AT_EPOCH":98452,"BSTAR":0.00017466195,"MEAN_MOTION_DOT":1.07e-6,"MEAN_MOTION_DDOT":0},{"OBJECT_NAME":"POLAR BEAR","OBJECT_ID":"1986-088A","EPOCH":"2026-04-27T05:38:43.204992","MEAN_MOTION":13.75279815,"ECCENTRICITY":0.00413795,"INCLINATION":89.6228,"RA_OF_ASC_NODE":178.4102,"ARG_OF_PERICENTER":73.103,"MEAN_ANOMALY":354.2511,"EPHEMERIS_TYPE":0,"CLASSIFICATION_TYPE":"U","NORAD_CAT_ID":17070,"ELEMENT_SET_NO":999,"REV_AT_EPOCH":97841,"BSTAR":8.6164123e-5,"MEAN_MOTION_DOT":9.5e-7,"MEAN_MOTION_DDOT":0},{"OBJECT_NAME":"OSCAR 27","OBJECT_ID":"1987-080A","EPOCH":"2026-04-27T04:08:21.571296","MEAN_MOTION":13.44932487,"ECCENTRICITY":0.01030472,"INCLINATION":90.3685,"RA_OF_ASC_NODE":84.2574,"ARG_OF_PERICENTER":195.6022,"MEAN_ANOMALY":164.1944,"EPHEMERIS_TYPE":0,"CLASSIFICATION_TYPE":"U","NORAD_CAT_ID":18361,"ELEMENT_SET_NO":999,"REV_AT_EPOCH":89377,"BSTAR":0.00016123071,"MEAN_MOTION_DOT":1.06e-6,"MEAN_MOTION_DDOT":0},{"OBJECT_NAME":"OSCAR 29","OBJECT_ID":"1987-080B","EPOCH":"2026-04-27T07:47:21.297120","MEAN_MOTION":13.44471565,"ECCENTRICITY":0.01039272,"INCLINATION":90.3694,"RA_OF_ASC_NODE":84.7317,"ARG_OF_PERICENTER":218.7966,"MEAN_ANOMALY":305.0851,"EPHEMERIS_TYPE":0,"CLASSIFICATION_TYPE":"U","NORAD_CAT_ID":18362,"ELEMENT_SET_NO":999,"REV_AT_EPOCH":89331,"BSTAR":0.0001321321,"MEAN_MOTION_DOT":8.7e-7,"MEAN_MOTION_DDOT":0},{"OBJECT_NAME":"OSCAR 23","OBJECT_ID":"1988-033A","EPOCH":"2026-04-27T06:07:15.907008","MEAN_MOTION":13.2780988,"ECCENTRICITY":0.01896952,"INCLINATION":90.3324,"RA_OF_ASC_NODE":20.6639,"ARG_OF_PERICENTER":162.981,"MEAN_ANOMALY":322.5285,"EPHEMERIS_TYPE":0,"CLASSIFICATION_TYPE":"U","NORAD_CAT_ID":19070,"ELEMENT_SET_NO":999,"REV_AT_EPOCH":84051,"BSTAR":0.00011584956,"MEAN_MOTION_DOT":6.7e-7,"MEAN_MOTION_DDOT":0},{"OBJECT_NAME":"OSCAR 32","OBJECT_ID":"1988-033B","EPOCH":"2026-04-27T06:57:13.108320","MEAN_MOTION":13.27973737,"ECCENTRICITY":0.01885018,"INCLINATION":90.3329,"RA_OF_ASC_NODE":20.8039,"ARG_OF_PERICENTER":149.6608,"MEAN_ANOMALY":332.4535,"EPHEMERIS_TYPE":0,"CLASSIFICATION_TYPE":"U","NORAD_CAT_ID":19071,"ELEMENT_SET_NO":999,"REV_AT_EPOCH":84064,"BSTAR":0.00010826376,"MEAN_MOTION_DOT":6.3e-7,"MEAN_MOTION_DDOT":0},{"OBJECT_NAME":"NOVA 2","OBJECT_ID":"1988-052A","EPOCH":"2026-04-27T07:34:51.051360","MEAN_MOTION":13.2295309,"ECCENTRICITY":0.00306481,"INCLINATION":89.9835,"RA_OF_ASC_NODE":78.0322,"ARG_OF_PERICENTER":3.7816,"MEAN_ANOMALY":153.9529,"EPHEMERIS_TYPE":0,"CLASSIFICATION_TYPE":"U","NORAD_CAT_ID":19223,"ELEMENT_SET_NO":999,"REV_AT_EPOCH":82740,"BSTAR":9.0842467e-5,"MEAN_MOTION_DOT":4.7e-7,"MEAN_MOTION_DDOT":0},{"OBJECT_NAME":"OSCAR 25","OBJECT_ID":"1988-074A","EPOCH":"2026-04-27T07:38:08.358720","MEAN_MOTION":13.42650501,"ECCENTRICITY":0.00946165,"INCLINATION":90.0453,"RA_OF_ASC_NODE":20.7525,"ARG_OF_PERICENTER":218.7344,"MEAN_ANOMALY":264.391,"EPHEMERIS_TYPE":0,"CLASSIFICATION_TYPE":"U","NORAD_CAT_ID":19419,"ELEMENT_SET_NO":999,"REV_AT_EPOCH":84459,"BSTAR":0.00010841824,"MEAN_MOTION_DOT":7.2e-7,"MEAN_MOTION_DDOT":0}]
