OPS 7218 (TRANSIT 16)   
1 02807U 67048A   26117.10944486  .00000133  00000+0  19000-3 0  9994
2 02807  89.6761 349.5937 0022198  84.5926  68.0154 13.50755640901035
OPS 4947 (TRANSIT 17)   
1 02965U 67092A   26117.25879240  .00000096  00000+0  12453-3 0  9992
2 02965  89.2586  14.1571 0046578 200.3319 274.3684 13.53489479889304
OPS 7034 (TRANSIT 18)   
1 03133U 68012A   26117.20726598  .00000141  00000+0  19751-3 0  9994
2 03133  90.0229 273.9717 0075305 137.1552  35.7717 13.51599905587483
NNSS 19 (TRANSIT 19)    
1 04507U 70067A   26117.27643321  .00000177  00000+0  23892-3 0  9992
2 04507  90.0148 234.6366 0169898 259.9721  98.2223 13.51350843740523
NNSS 20 (TRANSIT 20)    
1 06909U 73081A   26117.31694810  .00000155  00000+0  14699-3 0  9994
2 06909  89.8586 252.9918 0155327  32.4151 328.6438 13.71493253822199
TRANSAT                 
1 10457U 77106A   26117.32601248  .00000083  00000+0  11510-3 0  9992
2 10457  89.6459  73.7269 0026053 158.0283   7.4370 13.48964916385713
NOVA 1                  
1 12458U 81044A   26117.22032674  .00000063  00000+0  12765-3 0  9992
2 12458  89.8444  89.3836 0016276  90.3151 281.2620 13.23293282169784
NOVA 3                  
1 15362U 84110A   26117.29558934  .00000046  00000+0  89848-4 0  9993
2 15362  90.1172  82.0532 0030278 318.7723 170.9360 13.23063951  4902
OSCAR 30                
1 15935U 85066A   26117.20589791  .00000107  00000+0  17378-3 0  9992
2 15935  90.1529 101.9676 0169663  61.8152 310.7523 13.36103226982620
OSCAR 24                
1 15936U 85066B   26117.20465801  .00000107  00000+0  17466-3 0  9996
2 15936  90.1692  94.6090 0170839  68.2748 304.2729 13.35960356984520
POLAR BEAR              
1 17070U 86088A   26117.23522228  .00000095  00000+0  86164-4 0  9990
2 17070  89.6228 178.4102 0041379  73.1030 354.2511 13.75279815978411
OSCAR 27                
1 18361U 87080A   26117.17247189  .00000106  00000+0  16123-3 0  9990
2 18361  90.3685  84.2574 0103047 195.6022 164.1944 13.44932487893770
OSCAR 29                
1 18362U 87080B   26117.32455205  .00000087  00000+0  13213-3 0  9993
2 18362  90.3694  84.7317 0103927 218.7966 305.0851 13.44471565893310
OSCAR 23                
1 19070U 88033A   26117.25504522  .00000067  00000+0  11585-3 0  9996
2 19070  90.3324  20.6639 0189695 162.9810 322.5285 13.27809880840512
OSCAR 32                
1 19071U 88033B   26117.28973505  .00000063  00000+0  10826-3 0  9994
2 19071  90.3329  20.8039 0188501 149.6608 332.4535 13.27973737840641
NOVA 2                  
1 19223U 88052A   26117.31586865  .00000047  00000+0  90842-4 0  9996
2 19223  89.9835  78.0322 0030648   3.7816 153.9529 13.22953090827408
OSCAR 25                
1 19419U 88074A   26117.31815230  .00000072  00000+0  10842-3 0  9997
2 19419  90.0453  20.7525 0094616 218.7344 264.3910 13.42650501844595
